{"type": "FeatureCollection", "features": [ {"type": "Feature", "properties": {"norad_id": 38552, "name": "METEOSAT-10 (MSG-3)", "group": "weather", "lat": -1.601989247362521, "lon": -96.52996340784202, "alt_km": 35783.71814650019, "timestamp": "2025-12-21T11:31:42.483103+00:00", "meta": {"OBJECT_NAME": "METEOSAT-10 (MSG-3)", "OBJECT_ID": "2012-035B", "EPOCH": "2025-12-21T01:12:55.511136", "MEAN_MOTION": 1.00276728, "ECCENTRICITY": 7.04e-05, "INCLINATION": 4.247, "RA_OF_ASC_NODE": 61.7008, "ARG_OF_PERICENTER": 268.7079, "MEAN_ANOMALY": 137.9997, "EPHEMERIS_TYPE": 0, "CLASSIFICATION_TYPE": "U", "NORAD_CAT_ID": 38552, "ELEMENT_SET_NO": 999, "REV_AT_EPOCH": 4907, "BSTAR": 0, "MEAN_MOTION_DOT": 1.6e-07, "MEAN_MOTION_DDOT": 0}, "tle": {"line1": "1 38552U 12035B   25355.05064249  .00000016  00000+0  00000+0 0  9999", "line2": "2 38552   4.2470  61.7008 0000704 268.7079 137.9997  1.00276728 49072"}}, "geometry": {"type": "Point", "coordinates": [-96.52996340784202, -1.601989247362521]}}, {"type": "Feature", "properties": {"norad_id": 38771, "name": "METOP-B", "group": "weather", "lat": 30.567242739954004, "lon": -129.53386684267016, "alt_km": 816.8038780472898, "timestamp": "2025-12-21T11:31:42.483114+00:00", "meta": {"OBJECT_NAME": "METOP-B", "OBJECT_ID": "2012-049A", "EPOCH": "2025-12-21T04:04:21.332640", "MEAN_MOTION": 14.21411284, "ECCENTRICITY": 0.0003185, "INCLINATION": 98.6786, "RA_OF_ASC_NODE": 44.9851, "ARG_OF_PERICENTER": 126.3272, "MEAN_ANOMALY": 233.82, "EPHEMERIS_TYPE": 0, "CLASSIFICATION_TYPE": "U", "NORAD_CAT_ID": 38771, "ELEMENT_SET_NO": 999, "REV_AT_EPOCH": 68797, "BSTAR": 6.2638e-05, "MEAN_MOTION_DOT": 9.3e-07, "MEAN_MOTION_DDOT": 0}, "tle": {"line1": "1 38771U 12049A   25355.16969135  .00000093  00000+0  62638-4 0  9992", "line2": "2 38771  98.6786  44.9851 0003185 126.3272 233.8200 14.21411284687976"}}, "geometry": {"type": "Point", "coordinates": [-129.53386684267016, 30.567242739954004]}}, {"type": "Feature", "properties": {"norad_id": 39216, "name": "INSAT-3D", "group": "weather", "lat": -1.1450365628079973, "lon": 32.72815635751741, "alt_km": 35791.8128392457, "timestamp": "2025-12-21T11:31:42.483127+00:00", "meta": {"OBJECT_NAME": "INSAT-3D", "OBJECT_ID": "2013-038B", "EPOCH": "2025-12-21T00:30:38.783808", "MEAN_MOTION": 1.00276813, "ECCENTRICITY": 0.0001804, "INCLINATION": 1.465, "RA_OF_ASC_NODE": 84.9054, "ARG_OF_PERICENTER": 152.2631, "MEAN_ANOMALY": 349.8222, "EPHEMERIS_TYPE": 0, "CLASSIFICATION_TYPE": "U", "NORAD_CAT_ID": 39216, "ELEMENT_SET_NO": 999, "REV_AT_EPOCH": 4529, "BSTAR": 0, "MEAN_MOTION_DOT": -3.17e-06, "MEAN_MOTION_DDOT": 0}, "tle": {"line1": "1 39216U 13038B   25355.02128222 -.00000317  00000+0  00000+0 0  9995", "line2": "2 39216   1.4650  84.9054 0001804 152.2631 349.8222  1.00276813 45290"}}, "geometry": {"type": "Point", "coordinates": [32.72815635751741, -1.1450365628079973]}}, {"type": "Feature", "properties": {"norad_id": 39260, "name": "FENGYUN 3C", "group": "weather", "lat": -36.03947754424462, "lon": 146.5036584896978, "alt_km": 838.7638851673164, "timestamp": "2025-12-21T11:31:42.483137+00:00", "meta": {"OBJECT_NAME": "FENGYUN 3C", "OBJECT_ID": "2013-052A", "EPOCH": "2025-12-21T05:25:16.953024", "MEAN_MOTION": 14.15698648, "ECCENTRICITY": 0.0014754, "INCLINATION": 98.4772, "RA_OF_ASC_NODE": 332.4912, "ARG_OF_PERICENTER": 171.3551, "MEAN_ANOMALY": 188.788, "EPHEMERIS_TYPE": 0, "CLASSIFICATION_TYPE": "U", "NORAD_CAT_ID": 39260, "ELEMENT_SET_NO": 999, "REV_AT_EPOCH": 63338, "BSTAR": 4.4854e-05, "MEAN_MOTION_DOT": 4.7e-07, "MEAN_MOTION_DDOT": 0}, "tle": {"line1": "1 39260U 13052A   25355.22589066  .00000047  00000+0  44854-4 0  9998", "line2": "2 39260  98.4772 332.4912 0014754 171.3551 188.7880 14.15698648633382"}}, "geometry": {"type": "Point", "coordinates": [146.5036584896978, -36.03947754424462]}}, {"type": "Feature", "properties": {"norad_id": 40069, "name": "METEOR-M 2", "group": "weather", "lat": 16.148555958996496, "lon": -29.749162282531007, "alt_km": 825.0319214375932, "timestamp": "2025-12-21T11:31:42.483149+00:00", "meta": {"OBJECT_NAME": "METEOR-M 2", "OBJECT_ID": "2014-037A", "EPOCH": "2025-12-21T04:41:38.347872", "MEAN_MOTION": 14.21390734, "ECCENTRICITY": 0.0005412, "INCLINATION": 98.4903, "RA_OF_ASC_NODE": 332.4559, "ARG_OF_PERICENTER": 182.8041, "MEAN_ANOMALY": 177.3107, "EPHEMERIS_TYPE": 0, "CLASSIFICATION_TYPE": "U", "NORAD_CAT_ID": 40069, "ELEMENT_SET_NO": 999, "REV_AT_EPOCH": 59403, "BSTAR": 0.0002059, "MEAN_MOTION_DOT": 4.08e-06, "MEAN_MOTION_DDOT": 0}, "tle": {"line1": "1 40069U 14037A   25355.19558273  .00000408  00000+0  20590-3 0  9994", "line2": "2 40069  98.4903 332.4559 0005412 182.8041 177.3107 14.21390734594032"}}, "geometry": {"type": "Point", "coordinates": [-29.749162282531007, 16.148555958996496]}}, {"type": "Feature", "properties": {"norad_id": 40267, "name": "HIMAWARI-8", "group": "weather", "lat": -0.002476998463061081, "lon": 43.89255209412001, "alt_km": 35787.5647405971, "timestamp": "2025-12-21T11:31:42.483160+00:00", "meta": {"OBJECT_NAME": "HIMAWARI-8", "OBJECT_ID": "2014-060A", "EPOCH": "2025-12-20T22:27:36.487872", "MEAN_MOTION": 1.00270857, "ECCENTRICITY": 8.75e-05, "INCLINATION": 0.0398, "RA_OF_ASC_NODE": 138.0355, "ARG_OF_PERICENTER": 157.775, "MEAN_ANOMALY": 271.5211, "EPHEMERIS_TYPE": 0, "CLASSIFICATION_TYPE": "U", "NORAD_CAT_ID": 40267, "ELEMENT_SET_NO": 999, "REV_AT_EPOCH": 4097, "BSTAR": 0, "MEAN_MOTION_DOT": -2.52e-06, "MEAN_MOTION_DDOT": 0}, "tle": {"line1": "1 40267U 14060A   25354.93583898 -.00000252  00000+0  00000+0 0  9990", "line2": "2 40267   0.0398 138.0355 0000875 157.7750 271.5211  1.00270857 40977"}}, "geometry": {"type": "Point", "coordinates": [43.89255209412001, -0.002476998463061081]}}, {"type": "Feature", "properties": {"norad_id": 40367, "name": "FENGYUN 2G", "group": "weather", "lat": -4.9528106562414225, "lon": 2.564367486550332, "alt_km": 35788.55200050962, "timestamp": "2025-12-21T11:31:42.483173+00:00", "meta": {"OBJECT_NAME": "FENGYUN 2G", "OBJECT_ID": "2014-090A", "EPOCH": "2025-12-21T01:41:07.810656", "MEAN_MOTION": 1.00261103, "ECCENTRICITY": 0.0002661, "INCLINATION": 5.188, "RA_OF_ASC_NODE": 75.0029, "ARG_OF_PERICENTER": 203.8012, "MEAN_ANOMALY": 295.6309, "EPHEMERIS_TYPE": 0, "CLASSIFICATION_TYPE": "U", "NORAD_CAT_ID": 40367, "ELEMENT_SET_NO": 999, "REV_AT_EPOCH": 4021, "BSTAR": 0, "MEAN_MOTION_DOT": -2.79e-06, "MEAN_MOTION_DDOT": 0}, "tle": {"line1": "1 40367U 14090A   25355.07022929 -.00000279  00000+0  00000+0 0  9992", "line2": "2 40367   5.1880  75.0029 0002661 203.8012 295.6309  1.00261103 40213"}}, "geometry": {"type": "Point", "coordinates": [2.564367486550332, -4.9528106562414225]}}, {"type": "Feature", "properties": {"norad_id": 40732, "name": "METEOSAT-11 (MSG-4)", "group": "weather", "lat": -0.9892671772842905, "lon": -87.59715658445391, "alt_km": 35785.12866264834, "timestamp": "2025-12-21T11:31:42.483185+00:00", "meta": {"OBJECT_NAME": "METEOSAT-11 (MSG-4)", "OBJECT_ID": "2015-034A", "EPOCH": "2025-12-21T02:58:07.934016", "MEAN_MOTION": 1.00270116, "ECCENTRICITY": 8.18e-05, "INCLINATION": 2.7571, "RA_OF_ASC_NODE": 71.9801, "ARG_OF_PERICENTER": 136.5122, "MEAN_ANOMALY": 295.1851, "EPHEMERIS_TYPE": 0, "CLASSIFICATION_TYPE": "U", "NORAD_CAT_ID": 40732, "ELEMENT_SET_NO": 999, "REV_AT_EPOCH": 543, "BSTAR": 0, "MEAN_MOTION_DOT": 8.2e-07, "MEAN_MOTION_DDOT": 0}, "tle": {"line1": "1 40732U 15034A   25355.12370294  .00000082  00000+0  00000+0 0  9995", "line2": "2 40732   2.7571  71.9801 0000818 136.5122 295.1851  1.00270116  5434"}}, "geometry": {"type": "Point", "coordinates": [-87.59715658445391, -0.9892671772842905]}}, {"type": "Feature", "properties": {"norad_id": 41105, "name": "ELEKTRO-L 2", "group": "weather", "lat": 0.4138117925913103, "lon": -111.24627359770575, "alt_km": 35773.32420063192, "timestamp": "2025-12-21T11:31:42.483197+00:00", "meta": {"OBJECT_NAME": "ELEKTRO-L 2", "OBJECT_ID": "2015-074A", "EPOCH": "2025-12-21T01:08:40.917984", "MEAN_MOTION": 1.00272505, "ECCENTRICITY": 0.000351, "INCLINATION": 6.2453, "RA_OF_ASC_NODE": 72.7296, "ARG_OF_PERICENTER": 208.7625, "MEAN_ANOMALY": 171.0759, "EPHEMERIS_TYPE": 0, "CLASSIFICATION_TYPE": "U", "NORAD_CAT_ID": 41105, "ELEMENT_SET_NO": 999, "REV_AT_EPOCH": 3672, "BSTAR": 0, "MEAN_MOTION_DOT": -9.8e-07, "MEAN_MOTION_DDOT": 0}, "tle": {"line1": "1 41105U 15074A   25355.04769581 -.00000098  00000+0  00000+0 0  9994", "line2": "2 41105   6.2453  72.7296 0003510 208.7625 171.0759  1.00272505 36725"}}, "geometry": {"type": "Point", "coordinates": [-111.24627359770575, 0.4138117925913103]}}, {"type": "Feature", "properties": {"norad_id": 41752, "name": "INSAT-3DR", "group": "weather", "lat": -0.11457847079039002, "lon": -22.644786913177953, "alt_km": 35761.43474474143, "timestamp": "2025-12-21T11:31:42.483209+00:00", "meta": {"OBJECT_NAME": "INSAT-3DR", "OBJECT_ID": "2016-054A", "EPOCH": "2025-12-20T23:51:13.480128", "MEAN_MOTION": 1.00271576, "ECCENTRICITY": 0.0014141, "INCLINATION": 0.1118, "RA_OF_ASC_NODE": 86.3316, "ARG_OF_PERICENTER": 185.3117, "MEAN_ANOMALY": 249.9717, "EPHEMERIS_TYPE": 0, "CLASSIFICATION_TYPE": "U", "NORAD_CAT_ID": 41752, "ELEMENT_SET_NO": 999, "REV_AT_EPOCH": 3403, "BSTAR": 0, "MEAN_MOTION_DOT": -5.4e-07, "MEAN_MOTION_DDOT": 0}, "tle": {"line1": "1 41752U 16054A   25354.99390602 -.00000054  00000+0  00000+0 0  9990", "line2": "2 41752   0.1118  86.3316 0014141 185.3117 249.9717  1.00271576 34034"}}, "geometry": {"type": "Point", "coordinates": [-22.644786913177953, -0.11457847079039002]}}]}